STARLINK-37708          
1 69469U 26127AC  26168.58334491 -.01816049  00000+0 -71215-2 0  9990
2 69469  53.1574 259.9507 0001117  67.1471 303.4032 15.89276370  2706
STARLINK-37686          
1 69470U 26127AD  26168.58334491 -.01793512  00000+0 -68638-2 0  9996
2 69470  53.1574 259.9329 0000842  60.6640 318.4118 15.89713775  2706
STARLINK-37451          
1 69471U 26127AE  26168.58334491 -.01685486  00000+0 -63475-2 0  9991
2 69471  53.1573 259.9188 0000919  74.2312 311.6424 15.89833075  2702
DTC TEST OBJECT A       
1 69472U 26128A   26168.61786196  .00020612  00000+0  29880-3 0  9994
2 69472  54.9945 303.0397 0008492 290.9767  69.0360 15.55853289  1291
DTC TEST OBJECT B       
1 69473U 26128B   26168.61608431  .00026145  00000+0  37059-3 0  9994
2 69473  55.0033 303.0351 0008548 291.7555  68.2571 15.56312305  1282
TJS-25                  
1 69474U 26129A   26162.48255804  .00007407  00000+0  19774-2 0  9990
2 69474  16.5302  30.5351 7751889 199.9639  91.9387  1.72502163    78
2026-132A               
1 69502U 26132A   26168.42212665  .00000459  00000+0  42731-4 0  9995
2 69502  97.6908 232.0949 0012503 269.8950  90.0840 14.99044812   814
2026-132B               
1 69503U 26132B   26168.48854732  .00000260  00000+0  26267-4 0  9995
2 69503  97.6939 232.1634 0012411 271.9225  88.0577 14.99134965   822
BRO-22                  
1 69504U 26132C   26168.15269637  .00000564  00000+0  50442-4 0  9993
2 69504  97.6879 231.8305 0013885 284.9851  74.9835 14.99757939   779
2026-132D               
1 69505U 26132D   26167.14804611  .00001415  00000+0  11329-3 0  9995
2 69505  97.6817 230.8394 0011709 297.0190  62.9838 15.01725287   622
2026-132E               
1 69506U 26132E   26168.41560334  .00001494  00000+0  12198-3 0  9990
2 69506  97.6943 232.1097 0012729 306.9523  53.0535 15.00878988   802
2026-132F               
1 69507U 26132F   26164.41540372  .00003170  00000+0  25250-3 0  9993
2 69507  97.6869 228.1362 0010915 319.8335  40.2082 15.01040982   204
STARLINK-37536          
1 69508U 26133A   26167.83335648 -.01341643  63494-3 -14089-2 0  9992
2 69508  53.1606 324.8173 0000559  59.5001  99.8327 16.09769188  1912
STARLINK-37341          
1 69509U 26133B   26167.83335648 -.01323587  62105-3 -13702-2 0  9999
2 69509  53.1607 324.8139 0000595  70.2369  90.7497 16.09984093  1915
STARLINK-36536          
1 69510U 26133C   26167.83335648 -.01303653  60598-3 -13269-2 0  9995
2 69510  53.1607 324.8108 0000650  68.3984  94.1407 16.10237936  1857
STARLINK-37420          
1 69511U 26133D   26167.83335648 -.01255897  57007-3 -12311-2 0  9990
2 69511  53.1605 324.8045 0000538  76.2331  89.2678 16.10798910  1809
STARLINK-37511          
1 69512U 26133E   26167.83335648 -.01272983  58228-3 -12709-2 0  9993
2 69512  53.1608 324.8079 0000672  78.1650  85.8252 16.10524822  1803
STARLINK-37552          
1 69513U 26133F   26167.83335648 -.01231309  55149-3 -11881-2 0  9990
2 69513  53.1605 324.8018 0000711  60.3609 106.7359 16.11031128  1809
STARLINK-37607          
1 69514U 26133G   26167.83335648 -.01222552  54552-3 -11664-2 0  9997
2 69514  53.1606 324.7976 0000689  66.5425 102.3369 16.11198140  1802
STARLINK-37232          
1 69515U 26133H   26167.83335648 -.01203744  53194-3 -11301-2 0  9999
2 69515  53.1606 324.7947 0000572  92.2145  78.2582 16.11435750  1806
STARLINK-37323          
1 69516U 26133J   26167.83335648 -.01181758  51583-3 -10929-2 0  9995
2 69516  53.1605 324.7910 0000470  91.0897  81.0143 16.11655501  1807
STARLINK-37357          
1 69517U 26133K   26167.83335648 -.01174900  51132-3 -10763-2 0  9993
2 69517  53.1606 324.7871 0000414  70.9359 103.0168 16.11795371  1804
STARLINK-37408          
1 69518U 26133L   26167.83335648 -.01156102  49783-3 -10443-2 0  9992
2 69518  53.1606 324.7837 0000429  78.4039  97.2295 16.11998911  1801
STARLINK-37570          
1 69519U 26133M   26167.83335648 -.01117454  47120-3 -97350-3 0  9996
2 69519  53.1606 324.7772 0000576  72.8842 105.8193 16.12524652  1804
STARLINK-37510          
1 69520U 26133N   26167.83335648 -.01127146  47703-3 -99973-3 0  9997
2 69520  53.1604 324.7811 0000431  88.9406  88.2021 16.12263257  1807
STARLINK-37586          
1 69521U 26133P   26167.83335648 -.01085741  44940-3 -92161-3 0  9994
2 69521  53.1604 324.7704 0000473  76.2663 105.8832 16.12898519  1801
STARLINK-37379          
1 69522U 26133Q   26167.83335648 -.01077576  44415-3 -90530-3 0  9997
2 69522  53.1605 324.7665 0000561  75.0758 108.9019 16.13046715  1859
STARLINK-37429          
1 69523U 26133R   26167.83335648 -.01069779  43917-3 -88979-3 0  9994
2 69523  53.1604 324.7625 0000634  69.2190 116.6016 16.13190391  1854
STARLINK-37352          
1 69524U 26133S   26167.83335648 -.01043217  42097-3 -85282-3 0  9996
2 69524  53.1604 324.7595 0000438  81.9079 105.4751 16.13435818  1858
